<html>
<head>
<title> 
Looking Up!
            </title>
</head> <body> <h1>            <p><b>Should I fly?</b></p></h1>            <h2><p><i>A forecast for the common man.</i></p></h2><p><i>KSEE ~             Last computed 03/11/2023, 19:26:42 Pacific Time</i></p>            <table width="100%"><tr><th>Time</th><th>Now</th><th>+1hr</th><th>+2hr</th><th>+3hr</th><th>+4hr</th><th>+5hr</th><th>+6hr</th></tr>            <tr><td>Launch?</td><td>NO</td><td>NO</td><td>NO</td><td>NO</td>            <td>NO</td><td>NO</td><td>NO</td>            <tr><td>Confidence</td><td>94.1%</td><td>93.6%</td><td>93.4%</td><td>93.3%</td>            <td>93.2%</td><td>93.2%</td><td>91.0%</td></tr></table><p></p>            <table><tr><th>Airport</th><th>METAR</th><th>TAF</th><tr><td>KSEE</td><td>KSEE 120247Z 27003KT 5SM BR BKN008 OVC014 16/14 A3010</td><td><i>No TAF</i></td></tr><tr><td>KNZY</td><td>KNZY 120323Z 20004KT 3/4SM BR OVC004 14/14 A3010 RMK AO2 SFC VIS 1 1/4 T01390139</td><td>TAF KNZY 1123/1223 VRB06KT 3200 BR OVC005 QNH3000INS TEMPO 1123/1203 0600 FG VV002 FM120300 VRB06KT 1600 BR OVC003 QNH3001INS TEMPO 1212/1218 0600 FG VV002 FM122000 28009KT 9999 BKN009 QNH3009INS TX17/1221Z TN13/1213Z FS30203</td></tr><tr><td>KCRQ</td><td>KCRQ 120304Z AUTO 22005KT 1 1/4SM R24/5000VP6000FT BR OVC003 15/14 A3008 RMK AO2 T01500144 $</td><td>KCRQ 120308Z 1203/1224 20005KT 2SM BR VCSH OVC003 FM120800 VRB04KT 2SM BR VCFG OVC003 FM121700 VRB04KT 6SM BR OVC010 FM122000 26007KT P6SM BKN015</td></tr><tr><td>KNFG</td><td>KNFG 120259Z AUTO 00000KT 7SM OVC008 16/14 A3010 RMK AO2 CIG 006V011 T01560144 $</td><td>TAF KNFG 1203/1303 22004KT 9999 BKN011 OVC018 520001 540107 520809 521709 522609 523508 QNH3006INS FM120430 36004KT 9999 BKN010 OVC015 540107 520809 521709 522609 523508 QNH3010INS TEMPO 1205/1209 4800 SHRA BR FM121230 VRB02KT 9999 OVC010 540107 520809 521709 522609 523508 QNH3008INS FM121830 23004KT 9999 BKN015 540107 520809 521709 522609 523508 QNH3013INS BECMG 1221/1223 23008KT 9999 BKN015 540107 520809 521709 522609 523508 QNH3016INS T12/1214Z T16/1214Z</td></tr><tr><td>KNKX</td><td>KNKX 120255Z 23004KT 7SM OVC007 14/14 A3009 RMK AO2 SLP186 T01440144 52003</td><td>TAF KNKX 1203/1303 VRB03KT 4800 SHRA BR OVC007 540107 520809 521709 522609 523508 QNH3009INS FM121030 VRB02KT 4800 BR OVC010 540107 520809 521709 522609 523508 QNH3007INS FM121530 VRB03KT 9999 BKN015 540107 520809 521709 522609 523508 QNH3012INS BECMG 1217/1219 30008KT BKN020 QNH3015INS T12/1214Z T16/1214Z</td></tr><tr><td>KTRM</td><td>KTRM 120252Z AUTO 33013G21KT 10SM CLR 22/09 A2990 RMK AO2 SLP125 T02220089 50001</td><td>KTRM 112328Z 1200/1224 32012G22KT P6SM BKN200 FM120900 33007KT P6SM BKN200</td></tr><tr><td>KSAN</td><td>KSAN 120251Z 24003KT 3SM BR OVC004 16/14 A3011 RMK AO2 SLP196 T01560139 53003 $</td><td>KSAN 120202Z 1202/1306 17004KT 5SM BR VCSH OVC007 TEMPO 1202/1204 2SM -RA BR OVC004 FM121100 VRB04KT 4SM BR OVC007 FM121700 VRB04KT P6SM OVC010 FM121900 29007KT P6SM BKN018 FM130200 VRB04KT P6SM OVC015</td></tr><tr><td>MMTJ</td><td>MMTJ 120240Z 36003KT 6SM OVC010 16/16 A3011 RMK SLP204 54000 911 8/7// HZY BINOVC</td><td>TAF MMTJ 112330Z 1200/1300 21005KT P6SM OVC010 TX19/1220Z TN12/1213Z BECMG 1202/1203 3SM BR FM120900 30005KT 5SM HZ BKN010 BECMG 1210/1212 6SM HZ BKN030 FM121500 30005KT P6SM SCT020 BECMG 1221/1222 30010KT</td></tr></h2></body></html>